TIANMU-1 10             
1 57402U 23101D   26061.83042895  .00009265  00000+0  32933-3 0  9993
2 57402  97.2766 115.1255 0006792 152.2821 207.8783 15.29197717145387
FENGYUN 3F              
1 57490U 23111A   26061.85275353  .00000097  00000+0  66169-4 0  9993
2 57490  98.6942 133.8031 0001355  83.1146 277.0184 14.19917553133776
ARKTIKA-M 2             
1 58584U 23198A   26061.08569816  .00000131  00000+0  00000+0 0  9994
2 58584  63.2200 166.2306 6876768 267.7889  18.8403  2.00614887 16179
TIANMU-1 11             
1 58645U 23205A   26061.85457859  .00007739  00000+0  30545-3 0  9991
2 58645  97.3547  85.1165 0009811  31.1552 329.0267 15.25767145121306
TIANMU-1 12             
1 58646U 23205B   26061.82107830  .00007913  00000+0  31316-3 0  9991
2 58646  97.3536  84.8642 0007623  18.1535 341.9974 15.25688315121282
TIANMU-1 13             
1 58647U 23205C   26061.85219840  .00007999  00000+0  31608-3 0  9998
2 58647  97.3563  85.1307 0007248 359.5508   0.5722 15.25738867121287
TIANMU-1 14             
1 58648U 23205D   26061.83666493  .00007678  00000+0  30368-3 0  9993
2 58648  97.3497  84.3905 0008169   2.5930 357.5349 15.25715422121288
TIANMU-1 19             
1 58660U 23208A   26061.86159694  .00011891  00000+0  41615-3 0  9992
2 58660  97.4387 177.8428 0004395 346.1962  13.9158 15.29656787121067
TIANMU-1 20             
1 58661U 23208B   26061.85121176  .00011702  00000+0  39471-3 0  9994
2 58661  97.4325 178.3593 0006700 351.9872   8.1261 15.30846909121144
TIANMU-1 21             
1 58662U 23208C   26061.85863426  .00013761  00000+0  43593-3 0  9993
2 58662  97.4378 180.6154 0006438 345.2591  14.8463 15.32829832121263
TIANMU-1 22             
1 58663U 23208D   26061.81212157  .00011147  00000+0  39481-3 0  9996
2 58663  97.4381 177.8088 0003687  18.0300 342.1070 15.29285074121067
TIANMU-1 15             
1 58700U 24004A   26061.83441988  .00007561  00000+0  29928-3 0  9991
2 58700  97.4661 248.0826 0007234  13.9610 346.1827 15.25709508119555
TIANMU-1 16             
1 58701U 24004B   26061.81805513  .00008244  00000+0  32576-3 0  9990
2 58701  97.4602 247.3944 0005772  19.7687 340.3774 15.25742808119554
TIANMU-1 17             
1 58702U 24004C   26061.86613169  .00008979  00000+0  35415-3 0  9990
2 58702  97.4634 247.8928 0004998  22.6843 337.4615 15.25780746119557
TIANMU-1 18             
1 58703U 24004D   26061.85107108  .00008358  00000+0  33042-3 0  9996
2 58703  97.4651 248.0881 0004410  23.9422 336.2020 15.25731323119558
INSAT-3DS               
1 58990U 24033A   26061.67573977 -.00000172  00000+0  00000+0 0  9998
2 58990   0.0600 265.4797 0002309  89.0478 131.2531  1.00270355 46008
METEOR-M2 4             
1 59051U 24039A   26061.82589655  .00000039  00000+0  37299-4 0  9996
2 59051  98.6894  22.5308 0008040 113.6029 246.5993 14.22415848104147
