[{"OBJECT_NAME":"TIANMU-1 10","OBJECT_ID":"2023-101D","EPOCH":"2026-03-02T19:55:49.061280","MEAN_MOTION":15.29197717,"ECCENTRICITY":0.0006792,"INCLINATION":97.2766,"RA_OF_ASC_NODE":115.1255,"ARG_OF_PERICENTER":152.2821,"MEAN_ANOMALY":207.8783,"EPHEMERIS_TYPE":0,"CLASSIFICATION_TYPE":"U","NORAD_CAT_ID":57402,"ELEMENT_SET_NO":999,"REV_AT_EPOCH":14538,"BSTAR":0.00032933,"MEAN_MOTION_DOT":9.265e-5,"MEAN_MOTION_DDOT":0},{"OBJECT_NAME":"FENGYUN 3F","OBJECT_ID":"2023-111A","EPOCH":"2026-03-02T20:27:57.904992","MEAN_MOTION":14.19917553,"ECCENTRICITY":0.0001355,"INCLINATION":98.6942,"RA_OF_ASC_NODE":133.8031,"ARG_OF_PERICENTER":83.1146,"MEAN_ANOMALY":277.0184,"EPHEMERIS_TYPE":0,"CLASSIFICATION_TYPE":"U","NORAD_CAT_ID":57490,"ELEMENT_SET_NO":999,"REV_AT_EPOCH":13377,"BSTAR":6.6169e-5,"MEAN_MOTION_DOT":9.7e-7,"MEAN_MOTION_DDOT":0},{"OBJECT_NAME":"ARKTIKA-M 2","OBJECT_ID":"2023-198A","EPOCH":"2026-03-02T02:03:24.321024","MEAN_MOTION":2.00614887,"ECCENTRICITY":0.68767689,"INCLINATION":63.22,"RA_OF_ASC_NODE":166.2306,"ARG_OF_PERICENTER":267.7889,"MEAN_ANOMALY":18.8403,"EPHEMERIS_TYPE":0,"CLASSIFICATION_TYPE":"U","NORAD_CAT_ID":58584,"ELEMENT_SET_NO":999,"REV_AT_EPOCH":1617,"BSTAR":0,"MEAN_MOTION_DOT":1.31e-6,"MEAN_MOTION_DDOT":0},{"OBJECT_NAME":"TIANMU-1 11","OBJECT_ID":"2023-205A","EPOCH":"2026-03-02T20:30:35.590176","MEAN_MOTION":15.25767145,"ECCENTRICITY":0.0009811,"INCLINATION":97.3547,"RA_OF_ASC_NODE":85.1165,"ARG_OF_PERICENTER":31.1552,"MEAN_ANOMALY":329.0267,"EPHEMERIS_TYPE":0,"CLASSIFICATION_TYPE":"U","NORAD_CAT_ID":58645,"ELEMENT_SET_NO":999,"REV_AT_EPOCH":12130,"BSTAR":0.00030545,"MEAN_MOTION_DOT":7.739e-5,"MEAN_MOTION_DDOT":0},{"OBJECT_NAME":"TIANMU-1 12","OBJECT_ID":"2023-205B","EPOCH":"2026-03-02T19:42:21.165120","MEAN_MOTION":15.25688315,"ECCENTRICITY":0.0007623,"INCLINATION":97.3536,"RA_OF_ASC_NODE":84.8642,"ARG_OF_PERICENTER":18.1535,"MEAN_ANOMALY":341.9974,"EPHEMERIS_TYPE":0,"CLASSIFICATION_TYPE":"U","NORAD_CAT_ID":58646,"ELEMENT_SET_NO":999,"REV_AT_EPOCH":12128,"BSTAR":0.00031316,"MEAN_MOTION_DOT":7.913e-5,"MEAN_MOTION_DDOT":0},{"OBJECT_NAME":"TIANMU-1 13","OBJECT_ID":"2023-205C","EPOCH":"2026-03-02T20:27:09.941760","MEAN_MOTION":15.25738867,"ECCENTRICITY":0.0007248,"INCLINATION":97.3563,"RA_OF_ASC_NODE":85.1307,"ARG_OF_PERICENTER":359.5508,"MEAN_ANOMALY":0.5722,"EPHEMERIS_TYPE":0,"CLASSIFICATION_TYPE":"U","NORAD_CAT_ID":58647,"ELEMENT_SET_NO":999,"REV_AT_EPOCH":12128,"BSTAR":0.00031608,"MEAN_MOTION_DOT":7.999e-5,"MEAN_MOTION_DDOT":0},{"OBJECT_NAME":"TIANMU-1 14","OBJECT_ID":"2023-205D","EPOCH":"2026-03-02T20:04:47.849952","MEAN_MOTION":15.25715422,"ECCENTRICITY":0.0008169,"INCLINATION":97.3497,"RA_OF_ASC_NODE":84.3905,"ARG_OF_PERICENTER":2.593,"MEAN_ANOMALY":357.5349,"EPHEMERIS_TYPE":0,"CLASSIFICATION_TYPE":"U","NORAD_CAT_ID":58648,"ELEMENT_SET_NO":999,"REV_AT_EPOCH":12128,"BSTAR":0.00030368,"MEAN_MOTION_DOT":7.678e-5,"MEAN_MOTION_DDOT":0},{"OBJECT_NAME":"TIANMU-1 19","OBJECT_ID":"2023-208A","EPOCH":"2026-03-02T20:40:41.975616","MEAN_MOTION":15.29656787,"ECCENTRICITY":0.0004395,"INCLINATION":97.4387,"RA_OF_ASC_NODE":177.8428,"ARG_OF_PERICENTER":346.1962,"MEAN_ANOMALY":13.9158,"EPHEMERIS_TYPE":0,"CLASSIFICATION_TYPE":"U","NORAD_CAT_ID":58660,"ELEMENT_SET_NO":999,"REV_AT_EPOCH":12106,"BSTAR":0.00041615,"MEAN_MOTION_DOT":0.00011891,"MEAN_MOTION_DDOT":0},{"OBJECT_NAME":"TIANMU-1 20","OBJECT_ID":"2023-208B","EPOCH":"2026-03-02T20:25:44.696064","MEAN_MOTION":15.30846909,"ECCENTRICITY":0.00067,"INCLINATION":97.4325,"RA_OF_ASC_NODE":178.3593,"ARG_OF_PERICENTER":351.9872,"MEAN_ANOMALY":8.1261,"EPHEMERIS_TYPE":0,"CLASSIFICATION_TYPE":"U","NORAD_CAT_ID":58661,"ELEMENT_SET_NO":999,"REV_AT_EPOCH":12114,"BSTAR":0.00039471,"MEAN_MOTION_DOT":0.00011702,"MEAN_MOTION_DDOT":0},{"OBJECT_NAME":"TIANMU-1 21","OBJECT_ID":"2023-208C","EPOCH":"2026-03-02T20:36:26.000064","MEAN_MOTION":15.32829832,"ECCENTRICITY":0.0006438,"INCLINATION":97.4378,"RA_OF_ASC_NODE":180.6154,"ARG_OF_PERICENTER":345.2591,"MEAN_ANOMALY":14.8463,"EPHEMERIS_TYPE":0,"CLASSIFICATION_TYPE":"U","NORAD_CAT_ID":58662,"ELEMENT_SET_NO":999,"REV_AT_EPOCH":12126,"BSTAR":0.00043593,"MEAN_MOTION_DOT":0.00013761,"MEAN_MOTION_DDOT":0},{"OBJECT_NAME":"TIANMU-1 22","OBJECT_ID":"2023-208D","EPOCH":"2026-03-02T19:29:27.303648","MEAN_MOTION":15.29285074,"ECCENTRICITY":0.0003687,"INCLINATION":97.4381,"RA_OF_ASC_NODE":177.8088,"ARG_OF_PERICENTER":18.03,"MEAN_ANOMALY":342.107,"EPHEMERIS_TYPE":0,"CLASSIFICATION_TYPE":"U","NORAD_CAT_ID":58663,"ELEMENT_SET_NO":999,"REV_AT_EPOCH":12106,"BSTAR":0.00039481,"MEAN_MOTION_DOT":0.00011147,"MEAN_MOTION_DDOT":0},{"OBJECT_NAME":"TIANMU-1 15","OBJECT_ID":"2024-004A","EPOCH":"2026-03-02T20:01:33.877632","MEAN_MOTION":15.25709508,"ECCENTRICITY":0.0007234,"INCLINATION":97.4661,"RA_OF_ASC_NODE":248.0826,"ARG_OF_PERICENTER":13.961,"MEAN_ANOMALY":346.1827,"EPHEMERIS_TYPE":0,"CLASSIFICATION_TYPE":"U","NORAD_CAT_ID":58700,"ELEMENT_SET_NO":999,"REV_AT_EPOCH":11955,"BSTAR":0.00029928,"MEAN_MOTION_DOT":7.561e-5,"MEAN_MOTION_DDOT":0},{"OBJECT_NAME":"TIANMU-1 16","OBJECT_ID":"2024-004B","EPOCH":"2026-03-02T19:37:59.963232","MEAN_MOTION":15.25742808,"ECCENTRICITY":0.0005772,"INCLINATION":97.4602,"RA_OF_ASC_NODE":247.3944,"ARG_OF_PERICENTER":19.7687,"MEAN_ANOMALY":340.3774,"EPHEMERIS_TYPE":0,"CLASSIFICATION_TYPE":"U","NORAD_CAT_ID":58701,"ELEMENT_SET_NO":999,"REV_AT_EPOCH":11955,"BSTAR":0.00032576,"MEAN_MOTION_DOT":8.244e-5,"MEAN_MOTION_DDOT":0},{"OBJECT_NAME":"TIANMU-1 17","OBJECT_ID":"2024-004C","EPOCH":"2026-03-02T20:47:13.778016","MEAN_MOTION":15.25780746,"ECCENTRICITY":0.0004998,"INCLINATION":97.4634,"RA_OF_ASC_NODE":247.8928,"ARG_OF_PERICENTER":22.6843,"MEAN_ANOMALY":337.4615,"EPHEMERIS_TYPE":0,"CLASSIFICATION_TYPE":"U","NORAD_CAT_ID":58702,"ELEMENT_SET_NO":999,"REV_AT_EPOCH":11955,"BSTAR":0.00035415,"MEAN_MOTION_DOT":8.979e-5,"MEAN_MOTION_DDOT":0},{"OBJECT_NAME":"TIANMU-1 18","OBJECT_ID":"2024-004D","EPOCH":"2026-03-02T20:25:32.541312","MEAN_MOTION":15.25731323,"ECCENTRICITY":0.000441,"INCLINATION":97.4651,"RA_OF_ASC_NODE":248.0881,"ARG_OF_PERICENTER":23.9422,"MEAN_ANOMALY":336.202,"EPHEMERIS_TYPE":0,"CLASSIFICATION_TYPE":"U","NORAD_CAT_ID":58703,"ELEMENT_SET_NO":999,"REV_AT_EPOCH":11955,"BSTAR":0.00033042,"MEAN_MOTION_DOT":8.358e-5,"MEAN_MOTION_DDOT":0},{"OBJECT_NAME":"INSAT-3DS","OBJECT_ID":"2024-033A","EPOCH":"2026-03-02T16:13:03.916128","MEAN_MOTION":1.00270355,"ECCENTRICITY":0.0002309,"INCLINATION":0.06,"RA_OF_ASC_NODE":265.4797,"ARG_OF_PERICENTER":89.0478,"MEAN_ANOMALY":131.2531,"EPHEMERIS_TYPE":0,"CLASSIFICATION_TYPE":"U","NORAD_CAT_ID":58990,"ELEMENT_SET_NO":999,"REV_AT_EPOCH":4600,"BSTAR":0,"MEAN_MOTION_DOT":-1.72e-6,"MEAN_MOTION_DDOT":0},{"OBJECT_NAME":"METEOR-M2 4","OBJECT_ID":"2024-039A","EPOCH":"2026-03-02T19:49:17.461920","MEAN_MOTION":14.22415848,"ECCENTRICITY":0.000804,"INCLINATION":98.6894,"RA_OF_ASC_NODE":22.5308,"ARG_OF_PERICENTER":113.6029,"MEAN_ANOMALY":246.5993,"EPHEMERIS_TYPE":0,"CLASSIFICATION_TYPE":"U","NORAD_CAT_ID":59051,"ELEMENT_SET_NO":999,"REV_AT_EPOCH":10414,"BSTAR":3.7299e-5,"MEAN_MOTION_DOT":3.9e-7,"MEAN_MOTION_DDOT":0}]
